OBJECT_NAME,OBJECT_ID,EPOCH,MEAN_MOTION,ECCENTRICITY,INCLINATION,RA_OF_ASC_NODE,ARG_OF_PERICENTER,MEAN_ANOMALY,EPHEMERIS_TYPE,CLASSIFICATION_TYPE,NORAD_CAT_ID,ELEMENT_SET_NO,REV_AT_EPOCH,BSTAR,MEAN_MOTION_DOT,MEAN_MOTION_DDOT
TERRA,1999-068A,2020-04-17T09:33:12.506688,14.57124850,.0001083,98.2144,183.5225,92.8894,267.2439,0,U,25994,999,8142,.2893E-4,.85E-6,0
TERRA,1999-068A,2020-04-17T12:50:58.477920,14.57124925,.0001092,98.2145,183.6581,93.2643,266.8684,0,U,25994,999,8144,.29545E-4,.88E-6,0
TERRA,1999-068A,2020-04-17T17:47:37.452480,14.57124857,.0001104,98.2146,183.8615,94.9299,265.2027,0,U,25994,999,8147,.23477E-4,.6E-6,0
TERRA,1999-068A,2020-04-17T21:05:23.439264,14.57124789,.0001096,98.2145,183.9967,91.1043,269.0264,0,U,25994,999,8149,.24692E-4,.66E-6,0
TERRA,1999-068A,2020-04-18T02:02:02.449248,14.57125136,.0001117,98.2145,184.1998,91.7088,268.4250,0,U,25994,999,8152,.38101E-4,.126E-5,0
TERRA,1999-068A,2020-04-18T10:16:27.404544,14.57125108,.0001127,98.2146,184.5384,88.5656,271.5669,0,U,25994,999,8157,.30565E-4,.92E-6,0
TERRA,1999-068A,2020-04-18T13:34:13.393920,14.57125067,.0001125,98.2148,184.6742,88.8483,271.2844,0,U,25994,999,8159,.26703E-4,.75E-6,0
TERRA,1999-068A,2020-04-18T21:48:38.371680,14.57124456,.0001138,98.2147,185.0129,89.2346,270.8952,0,U,25994,999,8164,.75072E-5,-.11E-6,0
TERRA,1999-068A,2020-04-19T02:45:17.410176,14.57124778,.0001139,98.2147,185.2160,88.6328,271.5018,0,U,25994,999,8167,.17056E-4,.32E-6,0
TERRA,1999-068A,2020-04-19T06:03:03.371040,14.57124954,.0001104,98.2147,185.3516,89.2743,270.8602,0,U,25994,999,8169,.17752E-4,.35E-6,0
TERRA,1999-068A,2020-04-19T10:59:42.318816,14.57124976,.0001113,98.2148,185.5547,90.1664,269.9664,0,U,25994,999,8172,.16819E-4,.3E-6,0
TERRA,1999-068A,2020-04-19T19:14:07.287936,14.57124806,.0001102,98.2148,185.8935,88.4488,271.6829,0,U,25994,999,8177,.9031E-5,-.5E-7,0
TERRA,1999-068A,2020-04-20T05:07:25.265568,14.57125103,.0001089,98.2150,186.3001,87.0180,273.1157,0,U,25994,999,8183,.18647E-4,.39E-6,0
TERRA,1999-068A,2020-04-20T16:39:36.202464,14.57124826,.0001065,98.2149,186.7740,88.5406,271.5919,0,U,25994,999,8190,.21287E-6,-.44E-6,0
TERRA,1999-068A,2020-04-20T19:57:22.183200,14.57124869,.000106,98.2150,186.9095,85.6255,274.5059,0,U,25994,999,8192,.53728E-5,-.21E-6,0
TERRA,1999-068A,2020-04-21T04:11:47.167872,14.57125263,.0001031,98.2151,187.2482,86.7809,273.3533,0,U,25994,999,8197,.19979E-4,.45E-6,0
TERRA,1999-068A,2020-04-21T12:26:12.082560,14.57125481,.0001033,98.2152,187.5870,86.8790,273.2531,0,U,25994,999,8202,.26585E-4,.74E-6,0
TERRA,1999-068A,2020-04-21T19:01:44.031936,14.57125540,.0001041,98.2152,187.8579,85.7994,274.3315,0,U,25994,999,8206,.27671E-4,.79E-6,0
TERRA,1999-068A,2020-04-22T04:55:01.999200,14.57125759,.0001046,98.2152,188.2643,89.6769,270.4564,0,U,25994,999,8212,.3399E-4,.108E-5,0
TERRA,1999-068A,2020-04-22T11:30:33.939936,14.57125650,.0001045,98.2150,188.5350,90.3997,269.7320,0,U,25994,999,8216,.24291E-4,.64E-6,0
TERRA,1999-068A,2020-04-22T19:44:58.880544,14.57125174,.0001025,98.2151,188.8740,88.5226,271.6057,0,U,25994,999,8221,.44095E-5,-.25E-6,0
TERRA,1999-068A,2020-04-23T03:59:23.896320,14.57125523,.0000986,98.2149,189.2126,91.2698,268.8641,0,U,25994,999,8226,.14208E-4,.19E-6,0
TERRA,1999-068A,2020-04-23T12:13:48.815328,14.57125525,.0000988,98.2148,189.5513,90.2364,269.8952,0,U,25994,999,8231,.11385E-4,.6E-7,0
TERRA,1999-068A,2020-04-23T18:49:20.763840,14.57125489,.0000992,98.2148,189.8222,90.6743,269.4561,0,U,25994,999,8235,.10274E-4,.1E-7,0
TERRA,1999-068A,2020-04-24T04:42:38.722464,14.57125750,.0001006,98.2149,190.2286,92.8974,267.2353,0,U,25994,999,8241,.17547E-4,.34E-6,0
TERRA,1999-068A,2020-04-24T11:18:10.639872,14.57126103,.0001018,98.2149,190.4996,94.9405,265.1917,0,U,25994,999,8245,.28063E-4,.81E-6,0
TERRA,1999-068A,2020-04-24T19:32:35.564064,14.57125848,.0001043,98.2147,190.8382,95.4025,264.7270,0,U,25994,999,8250,.16843E-4,.31E-6,0
TERRA,1999-068A,2020-04-25T03:47:00.566880,14.57126021,.0001044,98.2146,191.1766,99.0381,261.0961,0,U,25994,999,8255,.20119E-4,.45E-6,0
TERRA,1999-068A,2020-04-25T12:01:25.473792,14.57126145,.0001061,98.2145,191.5154,99.3481,260.7842,0,U,25994,999,8260,.23216E-4,.59E-6,0
TERRA,1999-068A,2020-04-25T15:19:11.444160,14.57126337,.000106,98.2145,191.6508,98.8648,261.2680,0,U,25994,999,8262,.27985E-4,.81E-6,0
TERRA,1999-068A,2020-04-25T20:15:50.393664,14.57125934,.0001097,98.2145,191.8540,101.0747,259.0553,0,U,25994,999,8265,.14232E-4,.19E-6,0
