TERRA                   
1 25994U 99068A   20108.39806142  .00000085  00000+0  28930-4 0  9993
2 25994  98.2144 183.5225 0001083  92.8894 267.2439 14.57124850 81422
TERRA                   
1 25994U 99068A   20108.53539905  .00000088  00000+0  29545-4 0  9995
2 25994  98.2145 183.6581 0001092  93.2643 266.8684 14.57124925 81448
TERRA                   
1 25994U 99068A   20108.74140570  .00000060  00000+0  23477-4 0  9992
2 25994  98.2146 183.8615 0001104  94.9299 265.2027 14.57124857 81479
TERRA                   
1 25994U 99068A   20108.87874351  .00000066  00000+0  24692-4 0  9993
2 25994  98.2145 183.9967 0001096  91.1043 269.0264 14.57124789 81496
TERRA                   
1 25994U 99068A   20109.08475057  .00000126  00000+0  38101-4 0  9994
2 25994  98.2145 184.1998 0001117  91.7088 268.4250 14.57125136 81521
TERRA                   
1 25994U 99068A   20109.42809496  .00000092  00000+0  30565-4 0  9998
2 25994  98.2146 184.5384 0001127  88.5656 271.5669 14.57125108 81574
TERRA                   
1 25994U 99068A   20109.56543280  .00000075  00000+0  26703-4 0  9999
2 25994  98.2148 184.6742 0001125  88.8483 271.2844 14.57125067 81592
TERRA                   
1 25994U 99068A   20109.90877745 -.00000011  00000+0  75072-5 0  9998
2 25994  98.2147 185.0129 0001138  89.2346 270.8952 14.57124456 81644
TERRA                   
1 25994U 99068A   20110.11478484  .00000032  00000+0  17056-4 0  9999
2 25994  98.2147 185.2160 0001139  88.6328 271.5018 14.57124778 81676
TERRA                   
1 25994U 99068A   20110.25212235  .00000035  00000+0  17752-4 0  9990
2 25994  98.2147 185.3516 0001104  89.2743 270.8602 14.57124954 81691
TERRA                   
1 25994U 99068A   20110.45812869  .00000030  00000+0  16819-4 0  9999
2 25994  98.2148 185.5547 0001113  90.1664 269.9664 14.57124976 81726
TERRA                   
1 25994U 99068A   20110.80147324 -.00000005  00000+0  90310-5 0  9997
2 25994  98.2148 185.8935 0001102  88.4488 271.6829 14.57124806 81772
TERRA                   
1 25994U 99068A   20111.21348687  .00000039  00000+0  18647-4 0  9996
2 25994  98.2150 186.3001 0001089  87.0180 273.1157 14.57125103 81832
TERRA                   
1 25994U 99068A   20111.69416901 -.00000044  00000+0  21287-6 0  9996
2 25994  98.2149 186.7740 0001065  88.5406 271.5919 14.57124826 81902
TERRA                   
1 25994U 99068A   20111.83150675 -.00000021  00000+0  53728-5 0  9994
2 25994  98.2150 186.9095 0001060  85.6255 274.5059 14.57124869 81921
TERRA                   
1 25994U 99068A   20112.17485148  .00000045  00000+0  19979-4 0  9992
2 25994  98.2151 187.2482 0001031  86.7809 273.3533 14.57125263 81979
TERRA                   
1 25994U 99068A   20112.51819540  .00000074  00000+0  26585-4 0  9990
2 25994  98.2152 187.5870 0001033  86.8790 273.2531 14.57125481 82022
TERRA                   
1 25994U 99068A   20112.79287074  .00000079  00000+0  27671-4 0  9993
2 25994  98.2152 187.8579 0001041  85.7994 274.3315 14.57125540 82066
TERRA                   
1 25994U 99068A   20113.20488425  .00000108  00000+0  33990-4 0  9997
2 25994  98.2152 188.2643 0001046  89.6769 270.4564 14.57125759 82123
TERRA                   
1 25994U 99068A   20113.47955949  .00000064  00000+0  24291-4 0  9991
2 25994  98.2150 188.5350 0001045  90.3997 269.7320 14.57125650 82165
TERRA                   
1 25994U 99068A   20113.82290371 -.00000025  00000+0  44095-5 0  9994
2 25994  98.2151 188.8740 0001025  88.5226 271.6057 14.57125174 82210
TERRA                   
1 25994U 99068A   20114.16624880  .00000019  00000+0  14208-4 0  9992
2 25994  98.2149 189.2126 0000986  91.2698 268.8641 14.57125523 82269
TERRA                   
1 25994U 99068A   20114.50959277  .00000006  00000+0  11385-4 0  9990
2 25994  98.2148 189.5513 0000988  90.2364 269.8952 14.57125525 82316
TERRA                   
1 25994U 99068A   20114.78426810  .00000001  00000+0  10274-4 0  9993
2 25994  98.2148 189.8222 0000992  90.6743 269.4561 14.57125489 82351
TERRA                   
1 25994U 99068A   20115.19628151  .00000034  00000+0  17547-4 0  9997
2 25994  98.2149 190.2286 0001006  92.8974 267.2353 14.57125750 82418
TERRA                   
1 25994U 99068A   20115.47095648  .00000081  00000+0  28063-4 0  9994
2 25994  98.2149 190.4996 0001018  94.9405 265.1917 14.57126103 82453
TERRA                   
1 25994U 99068A   20115.81430051  .00000031  00000+0  16843-4 0  9991
2 25994  98.2147 190.8382 0001043  95.4025 264.7270 14.57125848 82504
TERRA                   
1 25994U 99068A   20116.15764545  .00000045  00000+0  20119-4 0  9993
2 25994  98.2146 191.1766 0001044  99.0381 261.0961 14.57126021 82555
TERRA                   
1 25994U 99068A   20116.50098928  .00000059  00000+0  23216-4 0  9993
2 25994  98.2145 191.5154 0001061  99.3481 260.7842 14.57126145 82609
TERRA                   
1 25994U 99068A   20116.63832690  .00000081  00000+0  27985-4 0  9991
2 25994  98.2145 191.6508 0001060  98.8648 261.2680 14.57126337 82622
TERRA                   
1 25994U 99068A   20116.84433326  .00000019  00000+0  14232-4 0  9999
2 25994  98.2145 191.8540 0001097 101.0747 259.0553 14.57125934 82656
